[{"OBJECT_NAME":"RAPTOR3","OBJECT_ID":"2024-028D","EPOCH":"2026-03-09T13:07:46.781472","MEAN_MOTION":13.70481191,"ECCENTRICITY":0.001103,"INCLINATION":39.9902,"RA_OF_ASC_NODE":141.1531,"ARG_OF_PERICENTER":37.2378,"MEAN_ANOMALY":322.9131,"EPHEMERIS_TYPE":0,"CLASSIFICATION_TYPE":"U","NORAD_CAT_ID":58958,"ELEMENT_SET_NO":999,"REV_AT_EPOCH":10339,"BSTAR":5.4463e-5,"MEAN_MOTION_DOT":-2.9e-7,"MEAN_MOTION_DDOT":0},{"OBJECT_NAME":"COSMOS 1275 DEB","OBJECT_ID":"1981-053NV","EPOCH":"2026-03-06T11:35:28.399776","MEAN_MOTION":13.75495233,"ECCENTRICITY":0.00405497,"INCLINATION":82.9646,"RA_OF_ASC_NODE":334.1548,"ARG_OF_PERICENTER":76.0867,"MEAN_ANOMALY":284.4795,"EPHEMERIS_TYPE":0,"CLASSIFICATION_TYPE":"U","NORAD_CAT_ID":39959,"ELEMENT_SET_NO":999,"REV_AT_EPOCH":58972,"BSTAR":0.00013694648,"MEAN_MOTION_DOT":1.48e-6,"MEAN_MOTION_DDOT":0}]
